start=new Date('2022-06-13T00:00:00.000Z').valueOf();
sats=[{"GP_ID":"206013174","COUNTRY_CODE":"US","SITE":"AFETR","ELEMENT_SET_NO":"999","EPOCH":"2022-06-12T17:47:02.783616","DECAY_DATE":null,"TLE_LINE2":"2 45402  53.0542 148.5970 0001763  68.0192 292.0984 15.06390075124088","FILE":"3493781","MEAN_ELEMENT_THEORY":"SGP4","PERIOD":"95.593","BSTAR":"-0.00003236100000","MEAN_ANOMALY":"292.0984","CENTER_NAME":"EARTH","MEAN_MOTION_DDOT":"0.0000000000000","RA_OF_ASC_NODE":"148.5970","APOAPSIS":"548.465","MEAN_MOTION":"15.06390075","INCLINATION":"53.0542","REF_FRAME":"TEME","TIME_SYSTEM":"UTC","REV_AT_EPOCH":"12408","OBJECT_NAME":"STARLINK-1257","RCS_SIZE":"LARGE","MEAN_MOTION_DOT":"-0.00000763","ARG_OF_PERICENTER":"68.0192","OBJECT_TYPE":"PAYLOAD","CLASSIFICATION_TYPE":"U","NORAD_CAT_ID":"45402","ECCENTRICITY":"0.00017630","EPHEMERIS_TYPE":"0","TLE_LINE1":"1 45402U 20019AU  22163.74100444 -.00000763  00000-0 -32361-4 0  9992","LAUNCH_DATE":"2020-03-18","PERIAPSIS":"546.023","OBJECT_ID":"2020-019AU","SEMIMAJOR_AXIS":"6925.379"},{"TLE_LINE1":"1 45403U 20019AV  22163.68940175  .00001335  00000-0  10848-3 0  9998","PERIAPSIS":"545.892","LAUNCH_DATE":"2020-03-18","OBJECT_ID":"2020-019AV","SEMIMAJOR_AXIS":"6925.347","NORAD_CAT_ID":"45403","ECCENTRICITY":"0.00019060","EPHEMERIS_TYPE":"0","MEAN_MOTION_DOT":"0.00001335","ARG_OF_PERICENTER":"54.7040","OBJECT_TYPE":"PAYLOAD","CLASSIFICATION_TYPE":"U","INCLINATION":"53.0529","REF_FRAME":"TEME","TIME_SYSTEM":"UTC","REV_AT_EPOCH":"12406","OBJECT_NAME":"STARLINK-1259","RCS_SIZE":"LARGE","RA_OF_ASC_NODE":"148.8359","APOAPSIS":"548.532","MEAN_MOTION":"15.06400623","TLE_LINE2":"2 45403  53.0529 148.8359 0001906  54.7040 305.4127 15.06400623124068","FILE":"3493781","MEAN_ELEMENT_THEORY":"SGP4","PERIOD":"95.592","MEAN_ANOMALY":"305.4127","BSTAR":"0.00010848000000","CENTER_NAME":"EARTH","MEAN_MOTION_DDOT":"0.0000000000000","EPOCH":"2022-06-12T16:32:44.311200","ELEMENT_SET_NO":"999","DECAY_DATE":null,"GP_ID":"206013420","COUNTRY_CODE":"US","SITE":"AFETR"},{"EPHEMERIS_TYPE":"0","ECCENTRICITY":"0.00018580","NORAD_CAT_ID":"45404","SEMIMAJOR_AXIS":"6925.334","LAUNCH_DATE":"2020-03-18","PERIAPSIS":"545.912","OBJECT_ID":"2020-019AW","TLE_LINE1":"1 45404U 20019AW  22163.36871360  .00000874  00000-0  77534-4 0  9996","OBJECT_NAME":"STARLINK-1260","RCS_SIZE":"LARGE","REF_FRAME":"TEME","REV_AT_EPOCH":"12392","TIME_SYSTEM":"UTC","INCLINATION":"53.0555","CLASSIFICATION_TYPE":"U","OBJECT_TYPE":"PAYLOAD","MEAN_MOTION_DOT":"0.00000874","ARG_OF_PERICENTER":"56.1375","CENTER_NAME":"EARTH","MEAN_MOTION_DDOT":"0.0000000000000","PERIOD":"95.592","BSTAR":"0.00007753400000","MEAN_ANOMALY":"303.9790","FILE":"3493305","MEAN_ELEMENT_THEORY":"SGP4","TLE_LINE2":"2 45404  53.0555 150.2746 0001858  56.1375 303.9790 15.06404684123922","MEAN_MOTION":"15.06404684","RA_OF_ASC_NODE":"150.2746","APOAPSIS":"548.486","SITE":"AFETR","COUNTRY_CODE":"US","GP_ID":"205976810","DECAY_DATE":null,"EPOCH":"2022-06-12T08:50:56.855040","ELEMENT_SET_NO":"999"},{"TLE_LINE2":"2 45405  53.0552 148.8485 0001716  68.6431 291.4741 15.06405554123976","MEAN_ELEMENT_THEORY":"SGP4","FILE":"3493781","PERIOD":"95.592","BSTAR":"0.00010748000000","MEAN_ANOMALY":"291.4741","MEAN_MOTION_DDOT":"0.0000000000000","CENTER_NAME":"EARTH","APOAPSIS":"548.385","RA_OF_ASC_NODE":"148.8485","MEAN_MOTION":"15.06405554","GP_ID":"206012423","COUNTRY_CODE":"US","SITE":"AFETR","EPOCH":"2022-06-12T16:27:24.672672","ELEMENT_SET_NO":"999","DECAY_DATE":null,"NORAD_CAT_ID":"45405","ECCENTRICITY":"0.00017160","EPHEMERIS_TYPE":"0","TLE_LINE1":"1 45405U 20019AX  22163.68570223  .00001320  00000-0  10748-3 0  9996","OBJECT_ID":"2020-019AX","LAUNCH_DATE":"2020-03-18","PERIAPSIS":"546.008","SEMIMAJOR_AXIS":"6925.332","INCLINATION":"53.0552","TIME_SYSTEM":"UTC","REV_AT_EPOCH":"12397","REF_FRAME":"TEME","RCS_SIZE":"LARGE","OBJECT_NAME":"STARLINK-1263","ARG_OF_PERICENTER":"68.6431","MEAN_MOTION_DOT":"0.00001320","CLASSIFICATION_TYPE":"U","OBJECT_TYPE":"PAYLOAD"},{"ELEMENT_SET_NO":"999","EPOCH":"2022-06-12T16:38:03.203232","DECAY_DATE":null,"COUNTRY_CODE":"US","GP_ID":"206012674","SITE":"AFETR","APOAPSIS":"548.652","RA_OF_ASC_NODE":"148.8036","MEAN_MOTION":"15.06394511","MEAN_ELEMENT_THEORY":"SGP4","FILE":"3493781","TLE_LINE2":"2 45406  53.0538 148.8036 0002053  54.8639 305.2542 15.06394511123978","MEAN_MOTION_DDOT":"0.0000000000000","CENTER_NAME":"EARTH","PERIOD":"95.592","MEAN_ANOMALY":"305.2542","BSTAR":"0.00010961000000","OBJECT_TYPE":"PAYLOAD","CLASSIFICATION_TYPE":"U","ARG_OF_PERICENTER":"54.8639","MEAN_MOTION_DOT":"0.00001351","TIME_SYSTEM":"UTC","REV_AT_EPOCH":"12397","REF_FRAME":"TEME","INCLINATION":"53.0538","RCS_SIZE":"LARGE","OBJECT_NAME":"STARLINK-1265","PERIAPSIS":"545.809","LAUNCH_DATE":"2020-03-18","OBJECT_ID":"2020-019AY","TLE_LINE1":"1 45406U 20019AY  22163.69309263  .00001351  00000-0  10961-3 0  9993","SEMIMAJOR_AXIS":"6925.365","NORAD_CAT_ID":"45406","EPHEMERIS_TYPE":"0","ECCENTRICITY":"0.00020530"},{"NORAD_CAT_ID":"45407","ECCENTRICITY":"0.00016490","EPHEMERIS_TYPE":"0","TLE_LINE1":"1 45407U 20019AZ  22163.24245591 -.00000940  00000-0 -44194-4 0  9999","LAUNCH_DATE":"2020-03-18","OBJECT_ID":"2020-019AZ","PERIAPSIS":"546.086","SEMIMAJOR_AXIS":"6925.363","INCLINATION":"53.0553","TIME_SYSTEM":"UTC","REV_AT_EPOCH":"12390","REF_FRAME":"TEME","RCS_SIZE":"LARGE","OBJECT_NAME":"STARLINK-1275","ARG_OF_PERICENTER":"70.7627","MEAN_MOTION_DOT":"-0.00000940","OBJECT_TYPE":"PAYLOAD","CLASSIFICATION_TYPE":"U","TLE_LINE2":"2 45407  53.0553 150.8437 0001649  70.7627 289.3540 15.06395224123903","MEAN_ELEMENT_THEORY":"SGP4","FILE":"3493305","BSTAR":"-0.00004419400000","PERIOD":"95.592","MEAN_ANOMALY":"289.3540","MEAN_MOTION_DDOT":"0.0000000000000","CENTER_NAME":"EARTH","APOAPSIS":"548.370","RA_OF_ASC_NODE":"150.8437","MEAN_MOTION":"15.06395224","GP_ID":"205976060","COUNTRY_CODE":"US","SITE":"AFETR","EPOCH":"2022-06-12T05:49:08.190624","ELEMENT_SET_NO":"999","DECAY_DATE":null},{"TLE_LINE2":"2 45408  53.0523 179.5782 0001878  51.2867 308.8290 15.06394390123537","MEAN_ELEMENT_THEORY":"SGP4","FILE":"3493781","BSTAR":"-0.00003514700000","PERIOD":"95.592","MEAN_ANOMALY":"308.8290","MEAN_MOTION_DDOT":"0.0000000000000","CENTER_NAME":"EARTH","APOAPSIS":"548.531","RA_OF_ASC_NODE":"179.5782","MEAN_MOTION":"15.06394390","GP_ID":"206011673","COUNTRY_CODE":"US","SITE":"AFETR","ELEMENT_SET_NO":"999","EPOCH":"2022-06-12T12:29:54.060576","DECAY_DATE":null,"NORAD_CAT_ID":"45408","ECCENTRICITY":"0.00018780","EPHEMERIS_TYPE":"0","TLE_LINE1":"1 45408U 20019BA  22163.52076459 -.00000805  00000-0 -35147-4 0  9994","OBJECT_ID":"2020-019BA","LAUNCH_DATE":"2020-03-18","PERIAPSIS":"545.930","SEMIMAJOR_AXIS":"6925.366","INCLINATION":"53.0523","TIME_SYSTEM":"UTC","REV_AT_EPOCH":"12353","REF_FRAME":"TEME","RCS_SIZE":"LARGE","OBJECT_NAME":"STARLINK-1278","ARG_OF_PERICENTER":"51.2867","MEAN_MOTION_DOT":"-0.00000805","CLASSIFICATION_TYPE":"U","OBJECT_TYPE":"PAYLOAD"},{"TLE_LINE2":"2 45409  53.0567 149.0016 0001906  64.4754 295.6431 15.06396662123973","MEAN_ELEMENT_THEORY":"SGP4","FILE":"3493781","BSTAR":"-0.00001870800000","PERIOD":"95.592","MEAN_ANOMALY":"295.6431","MEAN_MOTION_DDOT":"0.0000000000000","CENTER_NAME":"EARTH","APOAPSIS":"548.544","RA_OF_ASC_NODE":"149.0016","MEAN_MOTION":"15.06396662","COUNTRY_CODE":"US","GP_ID":"206011923","SITE":"AFETR","EPOCH":"2022-06-12T15:34:21.147168","ELEMENT_SET_NO":"999","DECAY_DATE":null,"NORAD_CAT_ID":"45409","ECCENTRICITY":"0.00019060","EPHEMERIS_TYPE":"0","TLE_LINE1":"1 45409U 20019BB  22163.64885587 -.00000560  00000-0 -18708-4 0  9990","LAUNCH_DATE":"2020-03-18","OBJECT_ID":"2020-019BB","PERIAPSIS":"545.904","SEMIMAJOR_AXIS":"6925.359","INCLINATION":"53.0567","REV_AT_EPOCH":"12397","TIME_SYSTEM":"UTC","REF_FRAME":"TEME","RCS_SIZE":"LARGE","OBJECT_NAME":"STARLINK-1282","ARG_OF_PERICENTER":"64.4754","MEAN_MOTION_DOT":"-0.00000560","OBJECT_TYPE":"PAYLOAD","CLASSIFICATION_TYPE":"U"},{"PERIAPSIS":"546.184","LAUNCH_DATE":"2020-03-18","OBJECT_ID":"2020-019BD","TLE_LINE1":"1 45411U 20019BD  22163.66360183 -.00000105  00000-0  11837-4 0  9995","SEMIMAJOR_AXIS":"6925.353","NORAD_CAT_ID":"45411","EPHEMERIS_TYPE":"0","ECCENTRICITY":"0.00014930","CLASSIFICATION_TYPE":"U","OBJECT_TYPE":"PAYLOAD","MEAN_MOTION_DOT":"-0.00000105","ARG_OF_PERICENTER":"65.0152","REF_FRAME":"TEME","REV_AT_EPOCH":"12399","TIME_SYSTEM":"UTC","INCLINATION":"53.0535","OBJECT_NAME":"STARLINK-1293","RCS_SIZE":"LARGE","RA_OF_ASC_NODE":"148.9361","APOAPSIS":"548.252","MEAN_MOTION":"15.06398594","FILE":"3493781","MEAN_ELEMENT_THEORY":"SGP4","TLE_LINE2":"2 45411  53.0535 148.9361 0001493  65.0152 295.0992 15.06398594123996","CENTER_NAME":"EARTH","MEAN_MOTION_DDOT":"0.0000000000000","BSTAR":"0.00001183700000","PERIOD":"95.592","MEAN_ANOMALY":"295.0992","ELEMENT_SET_NO":"999","EPOCH":"2022-06-12T15:55:35.198112","DECAY_DATE":null,"COUNTRY_CODE":"US","GP_ID":"206013175","SITE":"AFETR"},{"DECAY_DATE":null,"ELEMENT_SET_NO":"999","EPOCH":"2022-06-12T16:43:20.413056","SITE":"AFETR","GP_ID":"206013421","COUNTRY_CODE":"US","MEAN_MOTION":"15.06401181","RA_OF_ASC_NODE":"148.7966","APOAPSIS":"548.452","PERIOD":"95.592","MEAN_ANOMALY":"298.7611","BSTAR":"-0.00001354100000","CENTER_NAME":"EARTH","MEAN_MOTION_DDOT":"0.0000000000000","TLE_LINE2":"2 45412  53.0537 148.7966 0001793  61.3559 298.7611 15.06401181123974","FILE":"3493781","MEAN_ELEMENT_THEORY":"SGP4","MEAN_MOTION_DOT":"-0.00000483","ARG_OF_PERICENTER":"61.3559","OBJECT_TYPE":"PAYLOAD","CLASSIFICATION_TYPE":"U","OBJECT_NAME":"STARLINK-1296","RCS_SIZE":"LARGE","INCLINATION":"53.0537","REF_FRAME":"TEME","TIME_SYSTEM":"UTC","REV_AT_EPOCH":"12397","SEMIMAJOR_AXIS":"6925.345","TLE_LINE1":"1 45412U 20019BE  22163.69676404 -.00000483  00000-0 -13541-4 0  9999","LAUNCH_DATE":"2020-03-18","OBJECT_ID":"2020-019BE","PERIAPSIS":"545.968","ECCENTRICITY":"0.00017930","EPHEMERIS_TYPE":"0","NORAD_CAT_ID":"45412"}];
